SCS-01 D                
1 63985U 25100D   26068.75607686  .00032471  00000+0  10528-2 0  9990
2 63985  97.3730 145.4097 0006346 266.2302  93.8214 15.31902149 45621
STARLINK-35415          
1 65885U 25224D   26068.21064625  .00026955  00000+0  91922-3 0  9997
2 65885  53.1599  13.3880 0001103  84.5630 275.5496 15.30188375 24702
